[{"OBJECT_NAME":"HELIOS 1B","OBJECT_ID":"1999-064A","EPOCH":"2026-04-16T23:34:21.443232","MEAN_MOTION":14.87840004,"ECCENTRICITY":7.37e-5,"INCLINATION":98.1658,"RA_OF_ASC_NODE":10.3451,"ARG_OF_PERICENTER":39.801,"MEAN_ANOMALY":320.3259,"EPHEMERIS_TYPE":0,"CLASSIFICATION_TYPE":"U","NORAD_CAT_ID":25977,"ELEMENT_SET_NO":999,"REV_AT_EPOCH":69095,"BSTAR":9.8568503e-5,"MEAN_MOTION_DOT":8.43e-6,"MEAN_MOTION_DDOT":0},{"OBJECT_NAME":"TERRA","OBJECT_ID":"1999-068A","EPOCH":"2026-04-16T22:14:39.136704","MEAN_MOTION":14.6105383,"ECCENTRICITY":0.00035461,"INCLINATION":97.9517,"RA_OF_ASC_NODE":158.8855,"ARG_OF_PERICENTER":74.4837,"MEAN_ANOMALY":329.1455,"EPHEMERIS_TYPE":0,"CLASSIFICATION_TYPE":"U","NORAD_CAT_ID":25994,"ELEMENT_SET_NO":999,"REV_AT_EPOCH":40066,"BSTAR":5.3083123e-5,"MEAN_MOTION_DOT":2.16e-6,"MEAN_MOTION_DDOT":0},{"OBJECT_NAME":"SL-16 R/B","OBJECT_ID":"2000-006B","EPOCH":"2026-04-16T10:58:58.903680","MEAN_MOTION":14.158288,"ECCENTRICITY":0.00147339,"INCLINATION":71.0044,"RA_OF_ASC_NODE":18.4225,"ARG_OF_PERICENTER":129.2756,"MEAN_ANOMALY":230.9677,"EPHEMERIS_TYPE":0,"CLASSIFICATION_TYPE":"U","NORAD_CAT_ID":26070,"ELEMENT_SET_NO":999,"REV_AT_EPOCH":35390,"BSTAR":-7.921095e-5,"MEAN_MOTION_DOT":-2.04e-6,"MEAN_MOTION_DDOT":0},{"OBJECT_NAME":"TITAN 4B R/B","OBJECT_ID":"2000-047B","EPOCH":"2026-04-16T22:09:03.888288","MEAN_MOTION":15.09871948,"ECCENTRICITY":0.00415059,"INCLINATION":67.9867,"RA_OF_ASC_NODE":292.9724,"ARG_OF_PERICENTER":351.316,"MEAN_ANOMALY":8.7265,"EPHEMERIS_TYPE":0,"CLASSIFICATION_TYPE":"U","NORAD_CAT_ID":26474,"ELEMENT_SET_NO":999,"REV_AT_EPOCH":39868,"BSTAR":0.00010780146,"MEAN_MOTION_DOT":1.644e-5,"MEAN_MOTION_DDOT":0},{"OBJECT_NAME":"ENVISAT","OBJECT_ID":"2002-009A","EPOCH":"2026-04-16T20:18:30.975840","MEAN_MOTION":14.39049716,"ECCENTRICITY":0.00011424,"INCLINATION":98.3787,"RA_OF_ASC_NODE":59.5502,"ARG_OF_PERICENTER":84.5332,"MEAN_ANOMALY":296.2378,"EPHEMERIS_TYPE":0,"CLASSIFICATION_TYPE":"U","NORAD_CAT_ID":27386,"ELEMENT_SET_NO":999,"REV_AT_EPOCH":26466,"BSTAR":2.4600832e-5,"MEAN_MOTION_DOT":3.3e-7,"MEAN_MOTION_DDOT":0},{"OBJECT_NAME":"IDEFIX & ARIANE 42P R/B","OBJECT_ID":"2002-021B","EPOCH":"2026-04-16T16:07:22.763136","MEAN_MOTION":14.31051257,"ECCENTRICITY":0.00129934,"INCLINATION":98.5912,"RA_OF_ASC_NODE":44.8345,"ARG_OF_PERICENTER":76.6548,"MEAN_ANOMALY":283.6083,"EPHEMERIS_TYPE":0,"CLASSIFICATION_TYPE":"U","NORAD_CAT_ID":27422,"ELEMENT_SET_NO":999,"REV_AT_EPOCH":24945,"BSTAR":6.730492e-5,"MEAN_MOTION_DOT":1.34e-6,"MEAN_MOTION_DDOT":0},{"OBJECT_NAME":"AQUA","OBJECT_ID":"2002-022A","EPOCH":"2026-04-16T22:44:55.523040","MEAN_MOTION":14.62060895,"ECCENTRICITY":0.00018244,"INCLINATION":98.4235,"RA_OF_ASC_NODE":75.0287,"ARG_OF_PERICENTER":105.4067,"MEAN_ANOMALY":347.2065,"EPHEMERIS_TYPE":0,"CLASSIFICATION_TYPE":"U","NORAD_CAT_ID":27424,"ELEMENT_SET_NO":999,"REV_AT_EPOCH":27432,"BSTAR":0.00011054994,"MEAN_MOTION_DOT":5.06e-6,"MEAN_MOTION_DDOT":0},{"OBJECT_NAME":"CZ-4B R/B","OBJECT_ID":"2002-024C","EPOCH":"2026-04-16T22:29:24.614880","MEAN_MOTION":14.14554339,"ECCENTRICITY":0.00490305,"INCLINATION":98.8761,"RA_OF_ASC_NODE":160.1367,"ARG_OF_PERICENTER":274.4289,"MEAN_ANOMALY":259.4153,"EPHEMERIS_TYPE":0,"CLASSIFICATION_TYPE":"U","NORAD_CAT_ID":27432,"ELEMENT_SET_NO":999,"REV_AT_EPOCH":23464,"BSTAR":3.6149296e-5,"MEAN_MOTION_DOT":2.5e-7,"MEAN_MOTION_DDOT":0},{"OBJECT_NAME":"MIDORI II (ADEOS-II)","OBJECT_ID":"2002-056A","EPOCH":"2026-04-16T14:32:27.817728","MEAN_MOTION":14.29313519,"ECCENTRICITY":3.35e-5,"INCLINATION":98.7831,"RA_OF_ASC_NODE":65.3616,"ARG_OF_PERICENTER":143.369,"MEAN_ANOMALY":216.7514,"EPHEMERIS_TYPE":0,"CLASSIFICATION_TYPE":"U","NORAD_CAT_ID":27597,"ELEMENT_SET_NO":999,"REV_AT_EPOCH":21571,"BSTAR":8.1764406e-5,"MEAN_MOTION_DOT":1.63e-6,"MEAN_MOTION_DDOT":0},{"OBJECT_NAME":"H-2A R/B","OBJECT_ID":"2002-056E","EPOCH":"2026-04-16T22:42:42.436800","MEAN_MOTION":14.33787863,"ECCENTRICITY":0.00711847,"INCLINATION":98.3266,"RA_OF_ASC_NODE":65.8714,"ARG_OF_PERICENTER":48.2978,"MEAN_ANOMALY":352.8262,"EPHEMERIS_TYPE":0,"CLASSIFICATION_TYPE":"U","NORAD_CAT_ID":27601,"ELEMENT_SET_NO":999,"REV_AT_EPOCH":21959,"BSTAR":8.3648309e-5,"MEAN_MOTION_DOT":1.98e-6,"MEAN_MOTION_DDOT":0},{"OBJECT_NAME":"CZ-4B R/B","OBJECT_ID":"2003-049C","EPOCH":"2026-04-16T13:10:57.264960","MEAN_MOTION":14.55053567,"ECCENTRICITY":0.00492226,"INCLINATION":98.6899,"RA_OF_ASC_NODE":102.9481,"ARG_OF_PERICENTER":115.5819,"MEAN_ANOMALY":245.0476,"EPHEMERIS_TYPE":0,"CLASSIFICATION_TYPE":"U","NORAD_CAT_ID":28059,"ELEMENT_SET_NO":999,"REV_AT_EPOCH":19210,"BSTAR":6.4554535e-5,"MEAN_MOTION_DOT":2.31e-6,"MEAN_MOTION_DDOT":0},{"OBJECT_NAME":"CZ-2C R/B","OBJECT_ID":"2004-012C","EPOCH":"2026-04-16T16:06:22.659840","MEAN_MOTION":15.69236035,"ECCENTRICITY":0.00139965,"INCLINATION":97.7154,"RA_OF_ASC_NODE":175.687,"ARG_OF_PERICENTER":166.6656,"MEAN_ANOMALY":193.4978,"EPHEMERIS_TYPE":0,"CLASSIFICATION_TYPE":"U","NORAD_CAT_ID":28222,"ELEMENT_SET_NO":999,"REV_AT_EPOCH":21022,"BSTAR":0.00034960115,"MEAN_MOTION_DOT":0.0004087,"MEAN_MOTION_DDOT":0},{"OBJECT_NAME":"SL-16 R/B","OBJECT_ID":"2004-021B","EPOCH":"2026-04-16T20:29:37.946688","MEAN_MOTION":14.14605831,"ECCENTRICITY":0.00064163,"INCLINATION":71.0002,"RA_OF_ASC_NODE":152.4054,"ARG_OF_PERICENTER":320.1742,"MEAN_ANOMALY":39.8908,"EPHEMERIS_TYPE":0,"CLASSIFICATION_TYPE":"U","NORAD_CAT_ID":28353,"ELEMENT_SET_NO":999,"REV_AT_EPOCH":12823,"BSTAR":1.7749425e-5,"MEAN_MOTION_DOT":-1.4e-7,"MEAN_MOTION_DDOT":0},{"OBJECT_NAME":"CZ-4B R/B","OBJECT_ID":"2004-035C","EPOCH":"2026-04-16T15:51:27.457344","MEAN_MOTION":15.29701475,"ECCENTRICITY":0.00314041,"INCLINATION":97.3435,"RA_OF_ASC_NODE":140.4524,"ARG_OF_PERICENTER":190.5346,"MEAN_ANOMALY":169.524,"EPHEMERIS_TYPE":0,"CLASSIFICATION_TYPE":"U","NORAD_CAT_ID":28415,"ELEMENT_SET_NO":999,"REV_AT_EPOCH":18571,"BSTAR":0.00014950439,"MEAN_MOTION_DOT":4.287e-5,"MEAN_MOTION_DDOT":0},{"OBJECT_NAME":"CZ-2C R/B","OBJECT_ID":"2004-046B","EPOCH":"2026-04-16T16:47:32.003808","MEAN_MOTION":14.27007148,"ECCENTRICITY":0.0140322,"INCLINATION":98.1973,"RA_OF_ASC_NODE":19.3145,"ARG_OF_PERICENTER":42.8596,"MEAN_ANOMALY":318.3423,"EPHEMERIS_TYPE":0,"CLASSIFICATION_TYPE":"U","NORAD_CAT_ID":28480,"ELEMENT_SET_NO":999,"REV_AT_EPOCH":11392,"BSTAR":5.0866318e-5,"MEAN_MOTION_DOT":9.7e-7,"MEAN_MOTION_DDOT":0},{"OBJECT_NAME":"ARIANE 5 R/B","OBJECT_ID":"2004-049H","EPOCH":"2026-04-16T21:31:49.984320","MEAN_MOTION":14.85338781,"ECCENTRICITY":0.00831695,"INCLINATION":98.268,"RA_OF_ASC_NODE":276.7993,"ARG_OF_PERICENTER":226.6593,"MEAN_ANOMALY":132.767,"EPHEMERIS_TYPE":0,"CLASSIFICATION_TYPE":"U","NORAD_CAT_ID":28499,"ELEMENT_SET_NO":999,"REV_AT_EPOCH":15146,"BSTAR":6.8186349e-5,"MEAN_MOTION_DOT":5.58e-6,"MEAN_MOTION_DDOT":0},{"OBJECT_NAME":"CZ-2D R/B","OBJECT_ID":"2005-024B","EPOCH":"2026-04-16T18:20:07.969632","MEAN_MOTION":15.63659267,"ECCENTRICITY":0.00033469,"INCLINATION":97.3545,"RA_OF_ASC_NODE":123.404,"ARG_OF_PERICENTER":199.2718,"MEAN_ANOMALY":160.8415,"EPHEMERIS_TYPE":0,"CLASSIFICATION_TYPE":"U","NORAD_CAT_ID":28738,"ELEMENT_SET_NO":999,"REV_AT_EPOCH":14572,"BSTAR":0.00035207804,"MEAN_MOTION_DOT":0.00032713,"MEAN_MOTION_DDOT":0}]
