HELIOS 1B               
1 25977U 99064A   26106.98219263  .00000843  00000+0  98569-4 0  9998
2 25977  98.1658  10.3451 0000737  39.8010 320.3259 14.87840004690950
TERRA                   
1 25994U 99068A   26106.92684186  .00000216  00000+0  53083-4 0  9991
2 25994  97.9517 158.8855 0003546  74.4837 329.1455 14.61053830400666
SL-16 R/B               
1 26070U 00006B   26106.45762620 -.00000204  00000+0 -79211-4 0  9999
2 26070  71.0044  18.4225 0014733 129.2756 230.9677 14.15828800353906
TITAN 4B R/B            
1 26474U 00047B   26106.92296167  .00001644  00000+0  10780-3 0  9994
2 26474  67.9867 292.9724 0041505 351.3160   8.7265 15.09871948398681
ENVISAT                 
1 27386U 02009A   26106.84619185  .00000033  00000+0  24601-4 0  9996
2 27386  98.3787  59.5502 0001142  84.5332 296.2378 14.39049716264664
IDEFIX & ARIANE 42P R/B 
1 27422U 02021B   26106.67179124  .00000134  00000+0  67305-4 0  9996
2 27422  98.5912  44.8345 0012993  76.6548 283.6083 14.31051257249454
AQUA                    
1 27424U 02022A   26106.94786485  .00000506  00000+0  11055-3 0  9996
2 27424  98.4235  75.0287 0001824 105.4067 347.2065 14.62060895274325
CZ-4B R/B               
1 27432U 02024C   26106.93709045  .00000025  00000+0  36149-4 0  9991
2 27432  98.8761 160.1367 0049030 274.4289 259.4153 14.14554339234642
MIDORI II (ADEOS-II)    
1 27597U 02056A   26106.60587752  .00000163  00000+0  81764-4 0  9997
2 27597  98.7831  65.3616 0000335 143.3690 216.7514 14.29313519215712
H-2A R/B                
1 27601U 02056E   26106.94632450  .00000198  00000+0  83648-4 0  9997
2 27601  98.3266  65.8714 0071184  48.2978 352.8262 14.33787863219596
CZ-4B R/B               
1 28059U 03049C   26106.54927390  .00000231  00000+0  64555-4 0  9998
2 28059  98.6899 102.9481 0049222 115.5819 245.0476 14.55053567192101
CZ-2C R/B               
1 28222U 04012C   26106.67109560  .00040870  00000+0  34960-3 0  9995
2 28222  97.7154 175.6870 0013996 166.6656 193.4978 15.69236035210227
SL-16 R/B               
1 28353U 04021B   26106.85391142 -.00000014  00000+0  17749-4 0  9993
2 28353  71.0002 152.4054 0006416 320.1742  39.8908 14.14605831128236
CZ-4B R/B               
1 28415U 04035C   26106.66073446  .00004287  00000+0  14950-3 0  9995
2 28415  97.3435 140.4524 0031404 190.5346 169.5240 15.29701475185713
CZ-2C R/B               
1 28480U 04046B   26106.69967597  .00000097  00000+0  50866-4 0  9993
2 28480  98.1973  19.3145 0140322  42.8596 318.3423 14.27007148113924
ARIANE 5 R/B            
1 28499U 04049H   26106.89710630  .00000558  00000+0  68186-4 0  9998
2 28499  98.2680 276.7993 0083169 226.6593 132.7670 14.85338781151461
CZ-2D R/B               
1 28738U 05024B   26106.76398113  .00032713  00000+0  35208-3 0  9998
2 28738  97.3545 123.4040 0003346 199.2718 160.8415 15.63659267145724
